NORAD_CAT_ID,OBJECT_NAME,OBJECT_TYPE,EPOCH,MEAN_MOTION,ECCENTRICITY,INCLINATION,RA_OF_ASC_NODE,ARG_OF_PERICENTER,MEAN_ANOMALY,BSTAR,MEAN_MOTION_DOT,MEAN_MOTION_DDOT,TLE_LINE0,TLE_LINE1,TLE_LINE2,SEMIMAJOR_AXIS,PERIOD,APOGEE,PERIGEE,DECAYED
53541.0,STARLINK-4485,PAYLOAD,2023-09-23 16:48:28,15.08844767,0.0001426,53.2161,145.3527,96.8639,263.2516,-5.0067e-06,-3.68e-06,0.0,0 STARLINK-4485,1 53541U 22101Q   23266.70033388 -.00000368  00000-0 -50067-5 0  9997,2 53541  53.2161 145.3527 0001426  96.8639 263.2516 15.08844767 60606,6917.866,95.437,540.717,538.744,0.0
53541.0,STARLINK-4485,PAYLOAD,2023-09-24 00:45:24,15.08849725,0.0001331,53.2159,143.8667,95.1118,265.0026,0.00010843,1.439e-05,0.0,0 STARLINK-4485,1 53541U 22101Q   23267.03153175  .00001439  00000-0  10843-3 0  9995,2 53541  53.2159 143.8667 0001331  95.1118 265.0026 15.08849725 61347,6917.851,95.437,540.636,538.795,0.0
53541.0,STARLINK-4485,PAYLOAD,2023-09-24 21:25:25,15.08837328,0.0001342,53.2162,140.0026,98.4785,261.6359,2.1606e-05,5.6e-07,0.0,0 STARLINK-4485,1 53541U 22101Q   23267.89265775  .00000056  00000-0  21606-4 0  9993,2 53541  53.2162 140.0026 0001342  98.4785 261.6359 15.08837328 61478,6917.889,95.438,540.682,538.825,0.0
53541.0,STARLINK-4485,PAYLOAD,2023-09-25 00:36:11,15.08842445,0.0001343,53.2164,139.4058,89.4772,270.6374,0.00012507,1.703e-05,0.0,0 STARLINK-4485,1 53541U 22101Q   23268.02513618  .00001703  00000-0  12507-3 0  9990,2 53541  53.2164 139.4058 0001343  89.4772 270.6374 15.08842445 60803,6917.873,95.437,540.667,538.809,0.0
53541.0,STARLINK-4485,PAYLOAD,2023-09-25 08:33:07,15.08846642,0.0001291,53.2164,137.919,92.45,267.664,0.0002451,3.616e-05,0.0,0 STARLINK-4485,1 53541U 22101Q   23268.35633537  .00003616  00000-0  24510-3 0  9991,2 53541  53.2164 137.9190 0001291  92.4500 267.6640 15.08846642 61545,6917.86,95.437,540.618,538.832,0.0
53541.0,STARLINK-4485,PAYLOAD,2023-09-25 21:16:12,15.08852856,0.0001222,53.2158,135.54,92.1189,267.9943,0.00037732,5.724e-05,0.0,0 STARLINK-4485,1 53541U 22101Q   23268.88625289  .00005724  00000-0  37732-3 0  9996,2 53541  53.2158 135.5400 0001222  92.1189 267.9943 15.08852856 61622,6917.841,95.437,540.551,538.861,0.0
53541.0,STARLINK-4485,PAYLOAD,2023-09-25 22:51:35,15.08857606,0.0001257,53.2162,135.2428,91.8526,268.2611,0.00049461,7.596e-05,0.0,0 STARLINK-4485,1 53541U 22101Q   23268.95249142  .00007596  00000-0  49461-3 0  9995,2 53541  53.2162 135.2428 0001257  91.8526 268.2611 15.08857606 60941,6917.827,95.436,540.561,538.822,0.0
53541.0,STARLINK-4485,PAYLOAD,2023-09-26 21:07:00,15.08836945,0.0001287,53.2155,131.0774,97.6079,262.5059,0.00015789,2.226e-05,0.0,0 STARLINK-4485,1 53541U 22101Q   23269.87986116  .00002226  00000-0  15789-3 0  9997,2 53541  53.2155 131.0774 0001287  97.6079 262.5059 15.08836945 61779,6917.89,95.438,540.645,538.864,0.0
53541.0,STARLINK-4485,PAYLOAD,2023-09-27 00:17:46,15.0883497,0.0001392,53.2156,130.4834,84.7904,275.3247,0.00016994,2.417e-05,0.0,0 STARLINK-4485,1 53541U 22101Q   23270.01234338  .00002417  00000-0  16994-3 0  9998,2 53541  53.2156 130.4834 0001392  84.7904 275.3247 15.08834970 61105,6917.896,95.438,540.724,538.798,0.0
53541.0,STARLINK-4485,PAYLOAD,2023-09-27 08:14:42,15.08831975,0.0001382,53.2154,128.9968,91.5492,268.5658,0.00018341,2.632e-05,0.0,0 STARLINK-4485,1 53541U 22101Q   23270.34354631  .00002632  00000-0  18341-3 0  9990,2 53541  53.2154 128.9968 0001382  91.5492 268.5658 15.08831975 61843,6917.905,95.438,540.726,538.814,0.0
53541.0,STARLINK-4485,PAYLOAD,2023-09-27 20:57:47,15.08836642,0.0001391,53.2154,126.6175,92.3536,267.7615,0.00023312,3.424e-05,0.0,0 STARLINK-4485,1 53541U 22101Q   23270.87346847  .00003424  00000-0  23312-3 0  9992,2 53541  53.2154 126.6175 0001391  92.3536 267.7615 15.08836642 61925,6917.891,95.438,540.718,538.793,0.0
53541.0,STARLINK-4485,PAYLOAD,2023-09-28 17:37:48,15.08848553,0.0001385,53.2151,122.7501,101.0664,259.0484,0.00041751,6.365e-05,0.0,0 STARLINK-4485,1 53541U 22101Q   23271.73458561  .00006365  00000-0  41751-3 0  9999,2 53541  53.2151 122.7501 0001385 101.0664 259.0484 15.08848553 61365,6917.854,95.437,540.677,538.761,0.0
53541.0,STARLINK-4485,PAYLOAD,2023-09-28 20:48:34,15.08851878,0.0001449,53.2158,122.1559,97.0805,263.0352,0.00044734,6.841e-05,0.0,0 STARLINK-4485,1 53541U 22101Q   23271.86706437  .00006841  00000-0  44734-3 0  9994,2 53541  53.2158 122.1559 0001449  97.0805 263.0352 15.08851878 62073,6917.844,95.437,540.711,538.707,0.0
53541.0,STARLINK-4485,PAYLOAD,2023-09-28 23:59:20,15.08853698,0.000146,53.2159,121.5617,94.8857,265.2301,0.0004436,6.782e-05,0.0,0 STARLINK-4485,1 53541U 22101Q   23271.99954333  .00006782  00000-0  44360-3 0  9997,2 53541  53.2159 121.5617 0001460  94.8857 265.2301 15.08853698 62099,6917.839,95.437,540.714,538.694,0.0
53541.0,STARLINK-4485,PAYLOAD,2023-09-29 17:28:34,15.08849221,0.0001455,53.2161,118.2889,98.2568,261.8589,0.00017188,2.449e-05,0.0,0 STARLINK-4485,1 53541U 22101Q   23272.72818070  .00002449  00000-0  17188-3 0  9990,2 53541  53.2161 118.2889 0001455  98.2568 261.8589 15.08849221 61510,6917.852,95.437,540.724,538.711,0.0
53541.0,STARLINK-4485,PAYLOAD,2023-09-29 20:39:20,15.08851437,0.0001416,53.2158,117.6934,109.2175,250.8971,0.00018102,2.595e-05,0.0,0 STARLINK-4485,1 53541U 22101Q   23272.86065809  .00002595  00000-0  18102-3 0  9998,2 53541  53.2158 117.6934 0001416 109.2175 250.8971 15.08851437 62228,6917.845,95.437,540.69,538.731,0.0
53541.0,STARLINK-4485,PAYLOAD,2023-09-30 18:54:45,15.08840146,0.0001383,53.2157,113.534,107.2233,252.891,-5.6778e-05,-1.191e-05,0.0,0 STARLINK-4485,1 53541U 22101Q   23273.78802097 -.00001191  00000-0 -56778-4 0  9993,2 53541  53.2157 113.5340 0001383 107.2233 252.8910 15.08840146 61677,6917.88,95.438,540.702,538.788,0.0
53541.0,STARLINK-4485,PAYLOAD,2023-10-01 06:02:27,15.08842219,0.0001272,53.2153,111.452,90.9727,269.1411,8.8304e-05,1.118e-05,0.0,0 STARLINK-4485,1 53541U 22101Q   23274.25170178  .00001118  00000-0  88304-4 0  9991,2 53541  53.2153 111.4520 0001272  90.9727 269.1411 15.08842219 62438,6917.874,95.437,540.619,538.859,0.0
53541.0,STARLINK-4485,PAYLOAD,2023-10-01 18:45:31,15.08847559,0.0001217,53.2153,109.0727,86.6703,273.4428,0.00015771,2.223e-05,0.0,0 STARLINK-4485,1 53541U 22101Q   23274.78162002  .00002223  00000-0  15771-3 0  9991,2 53541  53.2153 109.0727 0001217  86.6703 273.4428 15.08847559 62512,6917.857,95.437,540.564,538.88,0.0
53541.0,STARLINK-4485,PAYLOAD,2023-10-01 23:31:41,15.08851643,0.0001276,53.2152,108.1805,94.1842,265.9296,0.00033255,5.01e-05,0.0,0 STARLINK-4485,1 53541U 22101Q   23274.98033846  .00005010  00000-0  33255-3 0  9990,2 53541  53.2152 108.1805 0001276  94.1842 265.9296 15.08851643 61855,6917.845,95.437,540.593,538.827,0.0
53541.0,STARLINK-4485,PAYLOAD,2023-10-02 20:11:42,15.08833299,0.0001531,53.2163,104.3144,79.1646,280.9518,-0.00010223,-1.914e-05,0.0,0 STARLINK-4485,1 53541U 22101Q   23275.84146560 -.00001914  00000-0 -10223-3 0  9995,2 53541  53.2163 104.3144 0001531  79.1646 280.9518 15.08833299 61985,6917.901,95.438,540.825,538.707,0.0
53541.0,STARLINK-4485,PAYLOAD,2023-10-03 05:44:01,15.08836977,0.0001529,53.2171,102.5336,90.1642,269.9526,2.6467e-05,1.33e-06,0.0,0 STARLINK-4485,1 53541U 22101Q   23276.23890618  .00000133  00000-0  26467-4 0  9997,2 53541  53.2171 102.5336 0001529  90.1642 269.9526 15.08836977 62739,6917.89,95.438,540.812,538.697,0.0
53541.0,STARLINK-4485,PAYLOAD,2023-10-03 20:02:29,15.0884578,0.0001431,53.2165,99.8542,96.3643,263.7512,8.1397e-05,1.008e-05,0.0,0 STARLINK-4485,1 53541U 22101Q   23276.83506215  .00001008  00000-0  81397-4 0  9995,2 53541  53.2165  99.8542 0001431  96.3643 263.7512 15.08845780 62133,6917.863,95.437,540.718,538.738,0.0
53541.0,STARLINK-4485,PAYLOAD,2023-10-04 11:56:21,15.08841779,0.0001712,53.2161,96.8807,85.897,274.2218,0.00012605,1.719e-05,0.0,0 STARLINK-4485,1 53541U 22101Q   23277.49746655  .00001719  00000-0  12605-3 0  9996,2 53541  53.2161  96.8807 0001712  85.8970 274.2218 15.08841779 62929,6917.875,95.437,540.924,538.556,0.0
53541.0,STARLINK-4485,PAYLOAD,2023-10-04 18:17:53,15.08843299,0.0001389,53.2158,95.6916,87.0047,273.1104,0.00023314,3.425e-05,0.0,0 STARLINK-4485,1 53541U 22101Q   23277.76242547  .00003425  00000-0  23314-3 0  9992,2 53541  53.2158  95.6916 0001389  87.0047 273.1104 15.08843299 62271,6917.87,95.437,540.696,538.774,0.0
53541.0,STARLINK-4485,PAYLOAD,2023-10-04 21:28:39,15.08848328,0.0001448,53.2164,95.0966,89.5973,270.5185,0.00027902,4.156e-05,0.0,0 STARLINK-4485,1 53541U 22101Q   23277.89490310  .00004156  00000-0  27902-3 0  9998,2 53541  53.2164  95.0966 0001448  89.5973 270.5185 15.08848328 62984,6917.855,95.437,540.722,538.718,0.0
53541.0,STARLINK-4485,PAYLOAD,2023-10-05 11:47:08,15.08839709,0.0001578,53.2161,92.4209,89.7854,270.3319,0.0001246,1.696e-05,0.0,0 STARLINK-4485,1 53541U 22101Q   23278.49106882  .00001696  00000-0  12460-3 0  9992,2 53541  53.2161  92.4209 0001578  89.7854 270.3319 15.08839709 63077,6917.881,95.438,540.838,538.655,0.0
53541.0,STARLINK-4485,PAYLOAD,2023-10-05 18:08:40,15.08842286,0.0001478,53.2165,91.2321,90.8906,269.2256,0.00012543,1.709e-05,0.0,0 STARLINK-4485,1 53541U 22101Q   23278.75602753  .00001709  00000-0  12543-3 0  9996,2 53541  53.2165  91.2321 0001478  90.8906 269.2256 15.08842286 62422,6917.873,95.437,540.761,538.716,0.0
53541.0,STARLINK-4485,PAYLOAD,2023-10-06 11:37:55,15.08842883,0.0001413,53.2166,87.961,89.605,270.5104,0.00010137,1.326e-05,0.0,0 STARLINK-4485,1 53541U 22101Q   23279.48466820  .00001326  00000-0  10137-3 0  9992,2 53541  53.2166  87.9610 0001413  89.6050 270.5104 15.08842883 63220,6917.872,95.437,540.714,538.759,0.0
53541.0,STARLINK-4485,PAYLOAD,2023-10-06 17:59:27,15.08846894,0.0001403,53.2169,86.7714,91.0504,269.0649,0.00015107,2.118e-05,0.0,0 STARLINK-4485,1 53541U 22101Q   23279.74962597  .00002118  00000-0  15107-3 0  9995,2 53541  53.2169  86.7714 0001403  91.0504 269.0649 15.08846894 63262,6917.859,95.437,540.695,538.754,0.0
